[{"OBJECT_NAME":"HELIOS 1B","OBJECT_ID":"1999-064A","EPOCH":"2026-04-10T23:55:14.927520","MEAN_MOTION":14.87829844,"ECCENTRICITY":0.00011103,"INCLINATION":98.1662,"RA_OF_ASC_NODE":4.1853,"ARG_OF_PERICENTER":38.0108,"MEAN_ANOMALY":322.1186,"EPHEMERIS_TYPE":0,"CLASSIFICATION_TYPE":"U","NORAD_CAT_ID":25977,"ELEMENT_SET_NO":999,"REV_AT_EPOCH":69006,"BSTAR":0.00016338129,"MEAN_MOTION_DOT":1.435e-5,"MEAN_MOTION_DDOT":0},{"OBJECT_NAME":"TERRA","OBJECT_ID":"1999-068A","EPOCH":"2026-04-11T05:48:54.184320","MEAN_MOTION":14.6105072,"ECCENTRICITY":0.00036517,"INCLINATION":97.9527,"RA_OF_ASC_NODE":153.4222,"ARG_OF_PERICENTER":85.5859,"MEAN_ANOMALY":316.3956,"EPHEMERIS_TYPE":0,"CLASSIFICATION_TYPE":"U","NORAD_CAT_ID":25994,"ELEMENT_SET_NO":999,"REV_AT_EPOCH":39983,"BSTAR":7.1061975e-5,"MEAN_MOTION_DOT":3.05e-6,"MEAN_MOTION_DDOT":0},{"OBJECT_NAME":"SL-16 R/B","OBJECT_ID":"2000-006B","EPOCH":"2026-04-11T05:30:23.909760","MEAN_MOTION":14.15830681,"ECCENTRICITY":0.00148486,"INCLINATION":71.0046,"RA_OF_ASC_NODE":29.4145,"ARG_OF_PERICENTER":138.382,"MEAN_ANOMALY":221.8436,"EPHEMERIS_TYPE":0,"CLASSIFICATION_TYPE":"U","NORAD_CAT_ID":26070,"ELEMENT_SET_NO":999,"REV_AT_EPOCH":35316,"BSTAR":-8.7721403e-5,"MEAN_MOTION_DOT":-2.2e-6,"MEAN_MOTION_DDOT":0},{"OBJECT_NAME":"TITAN 4B R/B","OBJECT_ID":"2000-047B","EPOCH":"2026-04-11T07:00:42.256800","MEAN_MOTION":15.09852171,"ECCENTRICITY":0.00410908,"INCLINATION":67.989,"RA_OF_ASC_NODE":308.8148,"ARG_OF_PERICENTER":357.7097,"MEAN_ANOMALY":2.3857,"EPHEMERIS_TYPE":0,"CLASSIFICATION_TYPE":"U","NORAD_CAT_ID":26474,"ELEMENT_SET_NO":999,"REV_AT_EPOCH":39783,"BSTAR":0.00014083871,"MEAN_MOTION_DOT":2.19e-5,"MEAN_MOTION_DDOT":0},{"OBJECT_NAME":"ENVISAT","OBJECT_ID":"2002-009A","EPOCH":"2026-04-11T07:30:58.415904","MEAN_MOTION":14.39048756,"ECCENTRICITY":0.00011663,"INCLINATION":98.3779,"RA_OF_ASC_NODE":54.1449,"ARG_OF_PERICENTER":83.3267,"MEAN_ANOMALY":89.8252,"EPHEMERIS_TYPE":0,"CLASSIFICATION_TYPE":"U","NORAD_CAT_ID":27386,"ELEMENT_SET_NO":999,"REV_AT_EPOCH":26386,"BSTAR":4.031524e-5,"MEAN_MOTION_DOT":8.2e-7,"MEAN_MOTION_DDOT":0},{"OBJECT_NAME":"IDEFIX & ARIANE 42P R/B","OBJECT_ID":"2002-021B","EPOCH":"2026-04-11T06:54:47.786976","MEAN_MOTION":14.31049369,"ECCENTRICITY":0.00129967,"INCLINATION":98.5903,"RA_OF_ASC_NODE":39.5123,"ARG_OF_PERICENTER":91.0645,"MEAN_ANOMALY":269.2027,"EPHEMERIS_TYPE":0,"CLASSIFICATION_TYPE":"U","NORAD_CAT_ID":27422,"ELEMENT_SET_NO":999,"REV_AT_EPOCH":24868,"BSTAR":9.5635821e-5,"MEAN_MOTION_DOT":2.08e-6,"MEAN_MOTION_DDOT":0},{"OBJECT_NAME":"AQUA","OBJECT_ID":"2002-022A","EPOCH":"2026-04-11T06:32:17.858688","MEAN_MOTION":14.62054341,"ECCENTRICITY":0.00016733,"INCLINATION":98.4226,"RA_OF_ASC_NODE":69.2448,"ARG_OF_PERICENTER":110.7445,"MEAN_ANOMALY":7.377,"EPHEMERIS_TYPE":0,"CLASSIFICATION_TYPE":"U","NORAD_CAT_ID":27424,"ELEMENT_SET_NO":999,"REV_AT_EPOCH":27349,"BSTAR":0.00015711795,"MEAN_MOTION_DOT":7.39e-6,"MEAN_MOTION_DDOT":0},{"OBJECT_NAME":"CZ-4B R/B","OBJECT_ID":"2002-024C","EPOCH":"2026-04-11T02:36:08.241408","MEAN_MOTION":14.14553717,"ECCENTRICITY":0.00490887,"INCLINATION":98.8772,"RA_OF_ASC_NODE":154.3413,"ARG_OF_PERICENTER":291.3526,"MEAN_ANOMALY":97.2045,"EPHEMERIS_TYPE":0,"CLASSIFICATION_TYPE":"U","NORAD_CAT_ID":27432,"ELEMENT_SET_NO":999,"REV_AT_EPOCH":23382,"BSTAR":3.8992545e-5,"MEAN_MOTION_DOT":3.1e-7,"MEAN_MOTION_DDOT":0},{"OBJECT_NAME":"MIDORI II (ADEOS-II)","OBJECT_ID":"2002-056A","EPOCH":"2026-04-11T03:29:40.780032","MEAN_MOTION":14.29311338,"ECCENTRICITY":1.045e-5,"INCLINATION":98.7822,"RA_OF_ASC_NODE":59.8594,"ARG_OF_PERICENTER":79.4916,"MEAN_ANOMALY":280.6277,"EPHEMERIS_TYPE":0,"CLASSIFICATION_TYPE":"U","NORAD_CAT_ID":27597,"ELEMENT_SET_NO":999,"REV_AT_EPOCH":21493,"BSTAR":0.00013057027,"MEAN_MOTION_DOT":2.87e-6,"MEAN_MOTION_DDOT":0},{"OBJECT_NAME":"H-2A R/B","OBJECT_ID":"2002-056E","EPOCH":"2026-04-11T07:36:07.605216","MEAN_MOTION":14.33785145,"ECCENTRICITY":0.00713788,"INCLINATION":98.3255,"RA_OF_ASC_NODE":60.4517,"ARG_OF_PERICENTER":64.8216,"MEAN_ANOMALY":95.3071,"EPHEMERIS_TYPE":0,"CLASSIFICATION_TYPE":"U","NORAD_CAT_ID":27601,"ELEMENT_SET_NO":999,"REV_AT_EPOCH":21878,"BSTAR":0.00010989792,"MEAN_MOTION_DOT":2.73e-6,"MEAN_MOTION_DDOT":0},{"OBJECT_NAME":"CZ-4B R/B","OBJECT_ID":"2003-049C","EPOCH":"2026-04-11T06:06:08.623872","MEAN_MOTION":14.55050425,"ECCENTRICITY":0.00489985,"INCLINATION":98.6899,"RA_OF_ASC_NODE":97.4434,"ARG_OF_PERICENTER":131.4366,"MEAN_ANOMALY":229.1055,"EPHEMERIS_TYPE":0,"CLASSIFICATION_TYPE":"U","NORAD_CAT_ID":28059,"ELEMENT_SET_NO":999,"REV_AT_EPOCH":19133,"BSTAR":7.5048024e-5,"MEAN_MOTION_DOT":2.77e-6,"MEAN_MOTION_DDOT":0},{"OBJECT_NAME":"CZ-2C R/B","OBJECT_ID":"2004-012C","EPOCH":"2026-04-11T02:56:22.262496","MEAN_MOTION":15.68738572,"ECCENTRICITY":0.00139886,"INCLINATION":97.7154,"RA_OF_ASC_NODE":169.5776,"ARG_OF_PERICENTER":185.6106,"MEAN_ANOMALY":174.5001,"EPHEMERIS_TYPE":0,"CLASSIFICATION_TYPE":"U","NORAD_CAT_ID":28222,"ELEMENT_SET_NO":999,"REV_AT_EPOCH":20935,"BSTAR":0.00055447574,"MEAN_MOTION_DOT":0.00063757,"MEAN_MOTION_DDOT":0},{"OBJECT_NAME":"SL-16 R/B","OBJECT_ID":"2004-021B","EPOCH":"2026-04-11T03:01:46.073280","MEAN_MOTION":14.14604481,"ECCENTRICITY":0.00059681,"INCLINATION":71.001,"RA_OF_ASC_NODE":164.425,"ARG_OF_PERICENTER":327.9304,"MEAN_ANOMALY":32.1454,"EPHEMERIS_TYPE":0,"CLASSIFICATION_TYPE":"U","NORAD_CAT_ID":28353,"ELEMENT_SET_NO":999,"REV_AT_EPOCH":12742,"BSTAR":0.00011228196,"MEAN_MOTION_DOT":1.68e-6,"MEAN_MOTION_DDOT":0},{"OBJECT_NAME":"CZ-4B R/B","OBJECT_ID":"2004-035C","EPOCH":"2026-04-11T02:24:34.768224","MEAN_MOTION":15.29651949,"ECCENTRICITY":0.00308443,"INCLINATION":97.3451,"RA_OF_ASC_NODE":134.9579,"ARG_OF_PERICENTER":210.6251,"MEAN_ANOMALY":149.3191,"EPHEMERIS_TYPE":0,"CLASSIFICATION_TYPE":"U","NORAD_CAT_ID":28415,"ELEMENT_SET_NO":999,"REV_AT_EPOCH":18486,"BSTAR":0.0002222999,"MEAN_MOTION_DOT":6.401e-5,"MEAN_MOTION_DDOT":0},{"OBJECT_NAME":"CZ-2C R/B","OBJECT_ID":"2004-046B","EPOCH":"2026-04-11T07:13:01.489152","MEAN_MOTION":14.27005689,"ECCENTRICITY":0.01405037,"INCLINATION":98.1973,"RA_OF_ASC_NODE":14.2523,"ARG_OF_PERICENTER":58.7059,"MEAN_ANOMALY":302.7794,"EPHEMERIS_TYPE":0,"CLASSIFICATION_TYPE":"U","NORAD_CAT_ID":28480,"ELEMENT_SET_NO":999,"REV_AT_EPOCH":11315,"BSTAR":6.1927679e-5,"MEAN_MOTION_DOT":1.27e-6,"MEAN_MOTION_DDOT":0},{"OBJECT_NAME":"ARIANE 5 R/B","OBJECT_ID":"2004-049H","EPOCH":"2026-04-11T00:52:12.786240","MEAN_MOTION":14.85331439,"ECCENTRICITY":0.00829112,"INCLINATION":98.2675,"RA_OF_ASC_NODE":270.7152,"ARG_OF_PERICENTER":245.8938,"MEAN_ANOMALY":113.3588,"EPHEMERIS_TYPE":0,"CLASSIFICATION_TYPE":"U","NORAD_CAT_ID":28499,"ELEMENT_SET_NO":999,"REV_AT_EPOCH":15059,"BSTAR":9.0369922e-5,"MEAN_MOTION_DOT":7.6e-6,"MEAN_MOTION_DDOT":0},{"OBJECT_NAME":"CZ-2D R/B","OBJECT_ID":"2005-024B","EPOCH":"2026-04-11T00:05:29.940000","MEAN_MOTION":15.63310655,"ECCENTRICITY":0.00023708,"INCLINATION":97.3561,"RA_OF_ASC_NODE":117.4053,"ARG_OF_PERICENTER":226.1839,"MEAN_ANOMALY":133.9224,"EPHEMERIS_TYPE":0,"CLASSIFICATION_TYPE":"U","NORAD_CAT_ID":28738,"ELEMENT_SET_NO":999,"REV_AT_EPOCH":14482,"BSTAR":0.00051378074,"MEAN_MOTION_DOT":0.00047219,"MEAN_MOTION_DDOT":0}]
