HELIOS 1B               
1 25977U 99064A   26100.99670055  .00001435  00000+0  16338-3 0  9994
2 25977  98.1662   4.1853 0001110  38.0108 322.1186 14.87829844690067
TERRA                   
1 25994U 99068A   26101.24229380  .00000305  00000+0  71062-4 0  9998
2 25994  97.9527 153.4222 0003651  85.5859 316.3956 14.61050720399835
SL-16 R/B               
1 26070U 00006B   26101.22944340 -.00000220  00000+0 -87721-4 0  9993
2 26070  71.0046  29.4145 0014848 138.3820 221.8436 14.15830681353161
TITAN 4B R/B            
1 26474U 00047B   26101.29215575  .00002190  00000+0  14084-3 0  9991
2 26474  67.9890 308.8148 0041090 357.7097   2.3857 15.09852171397832
ENVISAT                 
1 27386U 02009A   26101.31317611  .00000082  00000+0  40315-4 0  9996
2 27386  98.3779  54.1449 0001166  83.3267  89.8252 14.39048756263867
IDEFIX & ARIANE 42P R/B 
1 27422U 02021B   26101.28805309  .00000208  00000+0  95636-4 0  9999
2 27422  98.5903  39.5123 0012996  91.0645 269.2027 14.31049369248684
AQUA                    
1 27424U 02022A   26101.27242892  .00000739  00000+0  15712-3 0  9998
2 27424  98.4226  69.2448 0001673 110.7445   7.3770 14.62054341273493
CZ-4B R/B               
1 27432U 02024C   26101.10842872  .00000031  00000+0  38993-4 0  9997
2 27432  98.8772 154.3413 0049088 291.3526  97.2045 14.14553717233822
MIDORI II (ADEOS-II)    
1 27597U 02056A   26101.14561088  .00000287  00000+0  13057-3 0  9991
2 27597  98.7822  59.8594 0000104  79.4916 280.6277 14.29311338214935
H-2A R/B                
1 27601U 02056E   26101.31675469  .00000273  00000+0  10990-3 0  9993
2 27601  98.3255  60.4517 0071378  64.8216  95.3071 14.33785145218788
CZ-4B R/B               
1 28059U 03049C   26101.25426648  .00000277  00000+0  75048-4 0  9990
2 28059  98.6899  97.4434 0048998 131.4366 229.1055 14.55050425191330
CZ-2C R/B               
1 28222U 04012C   26101.12247989  .00063757  00000+0  55448-3 0  9991
2 28222  97.7154 169.5776 0013988 185.6106 174.5001 15.68738572209357
SL-16 R/B               
1 28353U 04021B   26101.12622770  .00000168  00000+0  11228-3 0  9996
2 28353  71.0010 164.4250 0005968 327.9304  32.1454 14.14604481127428
CZ-4B R/B               
1 28415U 04035C   26101.10040241  .00006401  00000+0  22230-3 0  9996
2 28415  97.3451 134.9579 0030844 210.6251 149.3191 15.29651949184861
CZ-2C R/B               
1 28480U 04046B   26101.30071168  .00000127  00000+0  61928-4 0  9991
2 28480  98.1973  14.2523 0140503  58.7059 302.7794 14.27005689113150
ARIANE 5 R/B            
1 28499U 04049H   26101.03625910  .00000760  00000+0  90370-4 0  9990
2 28499  98.2675 270.7152 0082911 245.8938 113.3588 14.85331439150595
CZ-2D R/B               
1 28738U 05024B   26101.00381875  .00047219  00000+0  51378-3 0  9990
2 28738  97.3561 117.4053 0002370 226.1839 133.9224 15.63310655144823
